KUIPER-00008            
1 63724U 25088A   26086.30538352 -.00086146  00000+0 -12347-1 0  9990
2 63724  51.9042   9.5345 0001833 115.2707 244.8444 14.76622705 50666
KUIPER-00009            
1 63725U 25088B   26088.06322048  .00006322  00000+0  78854-3 0  9992
2 63725  51.9041  20.6284 0005624 158.1718 201.9486 14.83469733 50659
KUIPER-00010            
1 63726U 25088C   26088.15624101  .00000267  00000+0  64062-4 0  9997
2 63726  51.9029 357.0157 0000715  81.5672 278.5371 14.79933749 50613
KUIPER-00011            
1 63727U 25088D   26088.04686243  .00002779  00000+0  39358-3 0  9990
2 63727  51.9036   5.0605 0000824  90.2664 269.8392 14.79911605 50623
KUIPER-00012            
1 63728U 25088E   26088.09679901  .00000104  00000+0  42707-4 0  9992
2 63728  51.9020 349.7666 0000678 114.9717 245.1316 14.79932826 50791
KUIPER-00013            
1 63729U 25088F   26088.09538578 -.00001741  00000+0 -19924-3 0  9991
2 63729  51.9047  22.2867 0002020 108.1097 252.0086 14.79945963 50445
KUIPER-00014            
1 63730U 25088G   26088.12794605  .00007823  00000+0  96759-3 0  9998
2 63730  51.9033  22.7684 0001505 166.1703 193.9302 14.83532907 50257
KUIPER-00015            
1 63731U 25088H   26088.15211367 -.00014191  00000+0 -18354-2 0  9993
2 63731  51.9007  32.0646 0000659  85.6819 274.4219 14.79956245 50581
KUIPER-00016            
1 63732U 25088J   26088.12450791  .00007567  00000+0  93504-3 0  9995
2 63732  51.9020  25.3039 0004692 138.2562 221.8760 14.83612662 50213
KUIPER-00018            
1 63733U 25088K   26088.10359661  .00000109  00000+0  43273-4 0  9992
2 63733  51.9050  14.7241 0000763  80.3211 279.7838 14.79916395 50366
KUIPER-00019            
1 63734U 25088L   26088.07709798  .00006849  00000+0  85079-3 0  9995
2 63734  51.9015  13.0794 0000802  86.7772 273.3283 14.83527865 50380
KUIPER-00020            
1 63735U 25088M   26088.10091423  .00006290  00000+0  85311-3 0  9998
2 63735  51.9035  17.2547 0002536 135.7172 224.3994 14.79944699 50535
KUIPER-00021            
1 63736U 25088N   26088.06496771  .00007736  00000+0  95722-3 0  9992
2 63736  51.9026  18.0529 0002997 133.9364 226.1848 14.83529923 50351
KUIPER-00023            
1 63737U 25088P   26088.09813115  .00005257  00000+0  71769-3 0  9992
2 63737  51.9022  19.7202 0001983 158.4224 201.6822 14.79957031 50636
KUIPER-00024            
1 63738U 25088Q   26088.04417262  .00003427  00000+0  47795-3 0  9990
2 63738  51.9052   7.5329 0000963  80.3656 279.7415 14.79966357 50921
KUIPER-00025            
1 63739U 25088R   26088.16252205 -.00002737  00000+0 -30087-3 0  9999
2 63739  51.9043  14.7464 0001167  66.1155 293.9931 14.83671324 50692
KUIPER-00027            
1 63740U 25088S   26088.04145739 -.00008441  00000+0 -10793-2 0  9990
2 63740  51.9011  10.0109 0000846  84.0433 276.0626 14.79944871 50480
