[{"OBJECT_NAME":"KUIPER-00008","OBJECT_ID":"2025-088A","EPOCH":"2026-03-27T07:19:45.136128","MEAN_MOTION":14.76622705,"ECCENTRICITY":0.0001833,"INCLINATION":51.9042,"RA_OF_ASC_NODE":9.5345,"ARG_OF_PERICENTER":115.2707,"MEAN_ANOMALY":244.8444,"EPHEMERIS_TYPE":0,"CLASSIFICATION_TYPE":"U","NORAD_CAT_ID":63724,"ELEMENT_SET_NO":999,"REV_AT_EPOCH":5066,"BSTAR":-0.012347,"MEAN_MOTION_DOT":-0.00086146,"MEAN_MOTION_DDOT":0},{"OBJECT_NAME":"KUIPER-00009","OBJECT_ID":"2025-088B","EPOCH":"2026-03-29T01:31:02.249472","MEAN_MOTION":14.83469733,"ECCENTRICITY":0.0005624,"INCLINATION":51.9041,"RA_OF_ASC_NODE":20.6284,"ARG_OF_PERICENTER":158.1718,"MEAN_ANOMALY":201.9486,"EPHEMERIS_TYPE":0,"CLASSIFICATION_TYPE":"U","NORAD_CAT_ID":63725,"ELEMENT_SET_NO":999,"REV_AT_EPOCH":5065,"BSTAR":0.00078854,"MEAN_MOTION_DOT":6.322e-5,"MEAN_MOTION_DDOT":0},{"OBJECT_NAME":"KUIPER-00010","OBJECT_ID":"2025-088C","EPOCH":"2026-03-29T03:44:59.223264","MEAN_MOTION":14.79933749,"ECCENTRICITY":7.15e-5,"INCLINATION":51.9029,"RA_OF_ASC_NODE":357.0157,"ARG_OF_PERICENTER":81.5672,"MEAN_ANOMALY":278.5371,"EPHEMERIS_TYPE":0,"CLASSIFICATION_TYPE":"U","NORAD_CAT_ID":63726,"ELEMENT_SET_NO":999,"REV_AT_EPOCH":5061,"BSTAR":6.4062e-5,"MEAN_MOTION_DOT":2.67e-6,"MEAN_MOTION_DDOT":0},{"OBJECT_NAME":"KUIPER-00011","OBJECT_ID":"2025-088D","EPOCH":"2026-03-29T01:07:28.913952","MEAN_MOTION":14.79911605,"ECCENTRICITY":8.24e-5,"INCLINATION":51.9036,"RA_OF_ASC_NODE":5.0605,"ARG_OF_PERICENTER":90.2664,"MEAN_ANOMALY":269.8392,"EPHEMERIS_TYPE":0,"CLASSIFICATION_TYPE":"U","NORAD_CAT_ID":63727,"ELEMENT_SET_NO":999,"REV_AT_EPOCH":5062,"BSTAR":0.00039358,"MEAN_MOTION_DOT":2.779e-5,"MEAN_MOTION_DDOT":0},{"OBJECT_NAME":"KUIPER-00012","OBJECT_ID":"2025-088E","EPOCH":"2026-03-29T02:19:23.434464","MEAN_MOTION":14.79932826,"ECCENTRICITY":6.78e-5,"INCLINATION":51.902,"RA_OF_ASC_NODE":349.7666,"ARG_OF_PERICENTER":114.9717,"MEAN_ANOMALY":245.1316,"EPHEMERIS_TYPE":0,"CLASSIFICATION_TYPE":"U","NORAD_CAT_ID":63728,"ELEMENT_SET_NO":999,"REV_AT_EPOCH":5079,"BSTAR":4.2707e-5,"MEAN_MOTION_DOT":1.04e-6,"MEAN_MOTION_DDOT":0},{"OBJECT_NAME":"KUIPER-00013","OBJECT_ID":"2025-088F","EPOCH":"2026-03-29T02:17:21.331392","MEAN_MOTION":14.79945963,"ECCENTRICITY":0.000202,"INCLINATION":51.9047,"RA_OF_ASC_NODE":22.2867,"ARG_OF_PERICENTER":108.1097,"MEAN_ANOMALY":252.0086,"EPHEMERIS_TYPE":0,"CLASSIFICATION_TYPE":"U","NORAD_CAT_ID":63729,"ELEMENT_SET_NO":999,"REV_AT_EPOCH":5044,"BSTAR":-0.00019924,"MEAN_MOTION_DOT":-1.741e-5,"MEAN_MOTION_DDOT":0},{"OBJECT_NAME":"KUIPER-00014","OBJECT_ID":"2025-088G","EPOCH":"2026-03-29T03:04:14.538720","MEAN_MOTION":14.83532907,"ECCENTRICITY":0.0001505,"INCLINATION":51.9033,"RA_OF_ASC_NODE":22.7684,"ARG_OF_PERICENTER":166.1703,"MEAN_ANOMALY":193.9302,"EPHEMERIS_TYPE":0,"CLASSIFICATION_TYPE":"U","NORAD_CAT_ID":63730,"ELEMENT_SET_NO":999,"REV_AT_EPOCH":5025,"BSTAR":0.00096759,"MEAN_MOTION_DOT":7.823e-5,"MEAN_MOTION_DDOT":0},{"OBJECT_NAME":"KUIPER-00015","OBJECT_ID":"2025-088H","EPOCH":"2026-03-29T03:39:02.621088","MEAN_MOTION":14.79956245,"ECCENTRICITY":6.59e-5,"INCLINATION":51.9007,"RA_OF_ASC_NODE":32.0646,"ARG_OF_PERICENTER":85.6819,"MEAN_ANOMALY":274.4219,"EPHEMERIS_TYPE":0,"CLASSIFICATION_TYPE":"U","NORAD_CAT_ID":63731,"ELEMENT_SET_NO":999,"REV_AT_EPOCH":5058,"BSTAR":-0.0018354,"MEAN_MOTION_DOT":-0.00014191,"MEAN_MOTION_DDOT":0},{"OBJECT_NAME":"KUIPER-00016","OBJECT_ID":"2025-088J","EPOCH":"2026-03-29T02:59:17.483424","MEAN_MOTION":14.83612662,"ECCENTRICITY":0.0004692,"INCLINATION":51.902,"RA_OF_ASC_NODE":25.3039,"ARG_OF_PERICENTER":138.2562,"MEAN_ANOMALY":221.876,"EPHEMERIS_TYPE":0,"CLASSIFICATION_TYPE":"U","NORAD_CAT_ID":63732,"ELEMENT_SET_NO":999,"REV_AT_EPOCH":5021,"BSTAR":0.00093504,"MEAN_MOTION_DOT":7.567e-5,"MEAN_MOTION_DDOT":0},{"OBJECT_NAME":"KUIPER-00018","OBJECT_ID":"2025-088K","EPOCH":"2026-03-29T02:29:10.747104","MEAN_MOTION":14.79916395,"ECCENTRICITY":7.63e-5,"INCLINATION":51.905,"RA_OF_ASC_NODE":14.7241,"ARG_OF_PERICENTER":80.3211,"MEAN_ANOMALY":279.7838,"EPHEMERIS_TYPE":0,"CLASSIFICATION_TYPE":"U","NORAD_CAT_ID":63733,"ELEMENT_SET_NO":999,"REV_AT_EPOCH":5036,"BSTAR":4.3273e-5,"MEAN_MOTION_DOT":1.09e-6,"MEAN_MOTION_DDOT":0},{"OBJECT_NAME":"KUIPER-00019","OBJECT_ID":"2025-088L","EPOCH":"2026-03-29T01:51:01.265472","MEAN_MOTION":14.83527865,"ECCENTRICITY":8.02e-5,"INCLINATION":51.9015,"RA_OF_ASC_NODE":13.0794,"ARG_OF_PERICENTER":86.7772,"MEAN_ANOMALY":273.3283,"EPHEMERIS_TYPE":0,"CLASSIFICATION_TYPE":"U","NORAD_CAT_ID":63734,"ELEMENT_SET_NO":999,"REV_AT_EPOCH":5038,"BSTAR":0.00085079,"MEAN_MOTION_DOT":6.849e-5,"MEAN_MOTION_DDOT":0},{"OBJECT_NAME":"KUIPER-00020","OBJECT_ID":"2025-088M","EPOCH":"2026-03-29T02:25:18.989472","MEAN_MOTION":14.79944699,"ECCENTRICITY":0.0002536,"INCLINATION":51.9035,"RA_OF_ASC_NODE":17.2547,"ARG_OF_PERICENTER":135.7172,"MEAN_ANOMALY":224.3994,"EPHEMERIS_TYPE":0,"CLASSIFICATION_TYPE":"U","NORAD_CAT_ID":63735,"ELEMENT_SET_NO":999,"REV_AT_EPOCH":5053,"BSTAR":0.00085311,"MEAN_MOTION_DOT":6.29e-5,"MEAN_MOTION_DDOT":0},{"OBJECT_NAME":"KUIPER-00021","OBJECT_ID":"2025-088N","EPOCH":"2026-03-29T01:33:33.210144","MEAN_MOTION":14.83529923,"ECCENTRICITY":0.0002997,"INCLINATION":51.9026,"RA_OF_ASC_NODE":18.0529,"ARG_OF_PERICENTER":133.9364,"MEAN_ANOMALY":226.1848,"EPHEMERIS_TYPE":0,"CLASSIFICATION_TYPE":"U","NORAD_CAT_ID":63736,"ELEMENT_SET_NO":999,"REV_AT_EPOCH":5035,"BSTAR":0.00095722,"MEAN_MOTION_DOT":7.736e-5,"MEAN_MOTION_DDOT":0},{"OBJECT_NAME":"KUIPER-00023","OBJECT_ID":"2025-088P","EPOCH":"2026-03-29T02:21:18.531360","MEAN_MOTION":14.79957031,"ECCENTRICITY":0.0001983,"INCLINATION":51.9022,"RA_OF_ASC_NODE":19.7202,"ARG_OF_PERICENTER":158.4224,"MEAN_ANOMALY":201.6822,"EPHEMERIS_TYPE":0,"CLASSIFICATION_TYPE":"U","NORAD_CAT_ID":63737,"ELEMENT_SET_NO":999,"REV_AT_EPOCH":5063,"BSTAR":0.00071769,"MEAN_MOTION_DOT":5.257e-5,"MEAN_MOTION_DDOT":0},{"OBJECT_NAME":"KUIPER-00024","OBJECT_ID":"2025-088Q","EPOCH":"2026-03-29T01:03:36.514368","MEAN_MOTION":14.79966357,"ECCENTRICITY":9.63e-5,"INCLINATION":51.9052,"RA_OF_ASC_NODE":7.5329,"ARG_OF_PERICENTER":80.3656,"MEAN_ANOMALY":279.7415,"EPHEMERIS_TYPE":0,"CLASSIFICATION_TYPE":"U","NORAD_CAT_ID":63738,"ELEMENT_SET_NO":999,"REV_AT_EPOCH":5092,"BSTAR":0.00047795,"MEAN_MOTION_DOT":3.427e-5,"MEAN_MOTION_DDOT":0},{"OBJECT_NAME":"KUIPER-00025","OBJECT_ID":"2025-088R","EPOCH":"2026-03-29T03:54:01.905120","MEAN_MOTION":14.83671324,"ECCENTRICITY":0.0001167,"INCLINATION":51.9043,"RA_OF_ASC_NODE":14.7464,"ARG_OF_PERICENTER":66.1155,"MEAN_ANOMALY":293.9931,"EPHEMERIS_TYPE":0,"CLASSIFICATION_TYPE":"U","NORAD_CAT_ID":63739,"ELEMENT_SET_NO":999,"REV_AT_EPOCH":5069,"BSTAR":-0.00030087,"MEAN_MOTION_DOT":-2.737e-5,"MEAN_MOTION_DDOT":0},{"OBJECT_NAME":"KUIPER-00027","OBJECT_ID":"2025-088S","EPOCH":"2026-03-29T00:59:41.918496","MEAN_MOTION":14.79944871,"ECCENTRICITY":8.46e-5,"INCLINATION":51.9011,"RA_OF_ASC_NODE":10.0109,"ARG_OF_PERICENTER":84.0433,"MEAN_ANOMALY":276.0626,"EPHEMERIS_TYPE":0,"CLASSIFICATION_TYPE":"U","NORAD_CAT_ID":63740,"ELEMENT_SET_NO":999,"REV_AT_EPOCH":5048,"BSTAR":-0.0010793,"MEAN_MOTION_DOT":-8.441e-5,"MEAN_MOTION_DDOT":0}]
